start=new Date('2023-03-21T00:00:00.000Z').valueOf();
sats=[{"PERIOD":"91.416","TLE_LINE2":"2 51967  53.2002 116.0312 0004578  45.6531 314.1928 15.75217019  1304","INCLINATION":"53.2002","REF_FRAME":"TEME","ECCENTRICITY":"0.00045780","APOAPSIS":"347.093","RA_OF_ASC_NODE":"116.0312","OBJECT_NAME":"STARLINK-3695","FILE":"3866115","PERIAPSIS":"340.938","DECAY_DATE":null,"COUNTRY_CODE":"US","SEMIMAJOR_AXIS":"6722.151","OBJECT_ID":"2022-025M","MEAN_ELEMENT_THEORY":"SGP4","EPOCH":"2023-03-20T22:00:01.999584","MEAN_ANOMALY":"314.1928","MEAN_MOTION_DOT":"0.00174347","SITE":"AFETR","RCS_SIZE":"LARGE","NORAD_CAT_ID":"51967","EPHEMERIS_TYPE":"0","MEAN_MOTION":"15.75217019","TLE_LINE1":"1 51967U 22025M   23079.91668981  .00174347  00000-0  11189-2 0  9996","LAUNCH_DATE":"2022-03-09","ARG_OF_PERICENTER":"45.6531","OBJECT_TYPE":"PAYLOAD","CENTER_NAME":"EARTH","TIME_SYSTEM":"UTC","REV_AT_EPOCH":"130","GP_ID":"228547830","MEAN_MOTION_DDOT":"0.0000000000000","ELEMENT_SET_NO":"999","CLASSIFICATION_TYPE":"U","BSTAR":"0.00111890000000"},{"REV_AT_EPOCH":"5740","GP_ID":"228549082","TIME_SYSTEM":"UTC","CLASSIFICATION_TYPE":"U","MEAN_MOTION_DDOT":"0.0000000000000","BSTAR":"-0.00044424000000","ELEMENT_SET_NO":"999","CENTER_NAME":"EARTH","MEAN_MOTION":"15.08048374","TLE_LINE1":"1 51968U 22025N   23079.69977657 -.00007198  00000-0 -44424-3 0  9995","EPHEMERIS_TYPE":"0","LAUNCH_DATE":"2022-03-09","ARG_OF_PERICENTER":"89.1545","OBJECT_TYPE":"PAYLOAD","MEAN_MOTION_DOT":"-0.00007198","SITE":"AFETR","NORAD_CAT_ID":"51968","RCS_SIZE":"LARGE","OBJECT_ID":"2022-025N","SEMIMAJOR_AXIS":"6920.301","MEAN_ANOMALY":"270.9592","EPOCH":"2023-03-20T16:47:40.695648","MEAN_ELEMENT_THEORY":"SGP4","DECAY_DATE":null,"COUNTRY_CODE":"US","OBJECT_NAME":"STARLINK-3681","PERIAPSIS":"541.289","FILE":"3866115","TLE_LINE2":"2 51968  53.1925 219.9206 0001267  89.1545 270.9592 15.08048374 57403","PERIOD":"95.488","REF_FRAME":"TEME","APOAPSIS":"543.043","RA_OF_ASC_NODE":"219.9206","ECCENTRICITY":"0.00012670","INCLINATION":"53.1925"},{"OBJECT_TYPE":"PAYLOAD","LAUNCH_DATE":"2022-03-09","ARG_OF_PERICENTER":"77.2677","TLE_LINE1":"1 51969U 22025P   23079.66787646  .00025306  00000-0  16377-2 0  9994","MEAN_MOTION":"15.08036812","EPHEMERIS_TYPE":"0","RCS_SIZE":"LARGE","NORAD_CAT_ID":"51969","SITE":"AFETR","MEAN_MOTION_DOT":"0.00025306","BSTAR":"0.00163770000000","MEAN_MOTION_DDOT":"0.0000000000000","CLASSIFICATION_TYPE":"U","ELEMENT_SET_NO":"999","GP_ID":"228493374","REV_AT_EPOCH":"5850","TIME_SYSTEM":"UTC","CENTER_NAME":"EARTH","PERIAPSIS":"541.252","FILE":"3865896","OBJECT_NAME":"STARLINK-3680","ECCENTRICITY":"0.00013720","APOAPSIS":"543.151","RA_OF_ASC_NODE":"220.0202","REF_FRAME":"TEME","INCLINATION":"53.1291","PERIOD":"95.488","TLE_LINE2":"2 51969  53.1291 220.0202 0001372  77.2677 282.8467 15.08036812 58509","MEAN_ANOMALY":"282.8467","EPOCH":"2023-03-20T16:01:44.526144","MEAN_ELEMENT_THEORY":"SGP4","OBJECT_ID":"2022-025P","SEMIMAJOR_AXIS":"6920.337","COUNTRY_CODE":"US","DECAY_DATE":null},{"OBJECT_NAME":"STARLINK-3677","FILE":"3866099","PERIAPSIS":"548.820","PERIOD":"95.642","TLE_LINE2":"2 51970  53.1950 219.5590 0001136  77.2726 282.8392 15.05619537 58515","INCLINATION":"53.1950","APOAPSIS":"550.394","RA_OF_ASC_NODE":"219.5590","ECCENTRICITY":"0.00011360","REF_FRAME":"TEME","SEMIMAJOR_AXIS":"6927.742","OBJECT_ID":"2022-025Q","MEAN_ELEMENT_THEORY":"SGP4","MEAN_ANOMALY":"282.8392","EPOCH":"2023-03-20T20:34:59.386656","DECAY_DATE":null,"COUNTRY_CODE":"US","EPHEMERIS_TYPE":"0","TLE_LINE1":"1 51970U 22025Q   23079.85763179  .00008112  00000-0  57467-3 0  9994","MEAN_MOTION":"15.05619537","OBJECT_TYPE":"PAYLOAD","ARG_OF_PERICENTER":"77.2726","LAUNCH_DATE":"2022-03-09","SITE":"AFETR","MEAN_MOTION_DOT":"0.00008112","NORAD_CAT_ID":"51970","RCS_SIZE":"LARGE","TIME_SYSTEM":"UTC","GP_ID":"228524811","REV_AT_EPOCH":"5851","MEAN_MOTION_DDOT":"0.0000000000000","CLASSIFICATION_TYPE":"U","ELEMENT_SET_NO":"999","BSTAR":"0.00057467000000","CENTER_NAME":"EARTH"},{"MEAN_MOTION_DDOT":"0.0000000000000","CLASSIFICATION_TYPE":"U","ELEMENT_SET_NO":"999","BSTAR":"-0.00002884600000","GP_ID":"228524819","REV_AT_EPOCH":"5852","TIME_SYSTEM":"UTC","CENTER_NAME":"EARTH","LAUNCH_DATE":"2022-03-09","ARG_OF_PERICENTER":"101.8826","OBJECT_TYPE":"PAYLOAD","MEAN_MOTION":"15.08045249","TLE_LINE1":"1 51971U 22025R   23079.77370061 -.00000735  00000-0 -28846-4 0  9995","EPHEMERIS_TYPE":"0","NORAD_CAT_ID":"51971","RCS_SIZE":"MEDIUM","MEAN_MOTION_DOT":"-0.00000735","SITE":"AFETR","EPOCH":"2023-03-20T18:34:07.732704","MEAN_ANOMALY":"258.2304","MEAN_ELEMENT_THEORY":"SGP4","OBJECT_ID":"2022-025R","SEMIMAJOR_AXIS":"6920.311","COUNTRY_CODE":"US","DECAY_DATE":null,"PERIAPSIS":"541.322","FILE":"3866099","OBJECT_NAME":"STARLINK-3669","REF_FRAME":"TEME","APOAPSIS":"543.030","RA_OF_ASC_NODE":"219.5895","ECCENTRICITY":"0.00012340","INCLINATION":"53.1912","TLE_LINE2":"2 51971  53.1912 219.5895 0001234 101.8826 258.2304 15.08045249 58523","PERIOD":"95.488"},{"TIME_SYSTEM":"UTC","GP_ID":"228548582","REV_AT_EPOCH":"5739","BSTAR":"0.00006973700000","MEAN_MOTION_DDOT":"0.0000000000000","CLASSIFICATION_TYPE":"U","ELEMENT_SET_NO":"999","CENTER_NAME":"EARTH","EPHEMERIS_TYPE":"0","TLE_LINE1":"1 51972U 22025S   23079.64737663  .00000737  00000-0  69737-4 0  9991","MEAN_MOTION":"15.05592029","OBJECT_TYPE":"PAYLOAD","LAUNCH_DATE":"2022-03-09","ARG_OF_PERICENTER":"73.6166","SITE":"AFETR","MEAN_MOTION_DOT":"0.00000737","NORAD_CAT_ID":"51972","RCS_SIZE":"LARGE","SEMIMAJOR_AXIS":"6927.826","OBJECT_ID":"2022-025S","MEAN_ELEMENT_THEORY":"SGP4","MEAN_ANOMALY":"286.4971","EPOCH":"2023-03-20T15:32:13.340832","DECAY_DATE":null,"COUNTRY_CODE":"US","OBJECT_NAME":"STARLINK-3671","FILE":"3866115","PERIAPSIS":"548.770","PERIOD":"95.643","TLE_LINE2":"2 51972  53.1991 220.4311 0001330  73.6166 286.4971 15.05592029 57392","INCLINATION":"53.1991","ECCENTRICITY":"0.00013300","APOAPSIS":"550.612","RA_OF_ASC_NODE":"220.4311","REF_FRAME":"TEME"},{"INCLINATION":"53.1953","REF_FRAME":"TEME","APOAPSIS":"550.665","ECCENTRICITY":"0.00013670","RA_OF_ASC_NODE":"220.4315","TLE_LINE2":"2 51973  53.1953 220.4315 0001367  94.1464 265.9683 15.05583173 57396","PERIOD":"95.644","FILE":"3866115","PERIAPSIS":"548.771","OBJECT_NAME":"STARLINK-3679","COUNTRY_CODE":"US","DECAY_DATE":null,"MEAN_ELEMENT_THEORY":"SGP4","MEAN_ANOMALY":"265.9683","EPOCH":"2023-03-20T15:53:21.079392","SEMIMAJOR_AXIS":"6927.853","OBJECT_ID":"2022-025T","RCS_SIZE":"LARGE","NORAD_CAT_ID":"51973","MEAN_MOTION_DOT":"0.00008017","SITE":"AFETR","LAUNCH_DATE":"2022-03-09","ARG_OF_PERICENTER":"94.1464","OBJECT_TYPE":"PAYLOAD","EPHEMERIS_TYPE":"0","MEAN_MOTION":"15.05583173","TLE_LINE1":"1 51973U 22025T   23079.66204953  .00008017  00000-0  56873-3 0  9990","CENTER_NAME":"EARTH","MEAN_MOTION_DDOT":"0.0000000000000","CLASSIFICATION_TYPE":"U","ELEMENT_SET_NO":"999","BSTAR":"0.00056873000000","TIME_SYSTEM":"UTC","REV_AT_EPOCH":"5739","GP_ID":"228549328"},{"SEMIMAJOR_AXIS":"6927.849","OBJECT_ID":"2022-025U","MEAN_ELEMENT_THEORY":"SGP4","MEAN_ANOMALY":"279.4439","EPOCH":"2023-03-20T17:02:27.700512","DECAY_DATE":null,"COUNTRY_CODE":"US","OBJECT_NAME":"STARLINK-3672","FILE":"3866115","PERIAPSIS":"548.633","PERIOD":"95.644","TLE_LINE2":"2 51974  53.2008 220.1482 0001559  80.6727 279.4439 15.05584684 57393","INCLINATION":"53.2008","REF_FRAME":"TEME","ECCENTRICITY":"0.00015590","APOAPSIS":"550.794","RA_OF_ASC_NODE":"220.1482","TIME_SYSTEM":"UTC","REV_AT_EPOCH":"5739","GP_ID":"228548081","MEAN_MOTION_DDOT":"0.0000000000000","ELEMENT_SET_NO":"999","CLASSIFICATION_TYPE":"U","BSTAR":"0.00020017000000","CENTER_NAME":"EARTH","EPHEMERIS_TYPE":"0","MEAN_MOTION":"15.05584684","TLE_LINE1":"1 51974U 22025U   23079.71004283  .00002639  00000-0  20017-3 0  9996","ARG_OF_PERICENTER":"80.6727","LAUNCH_DATE":"2022-03-09","OBJECT_TYPE":"PAYLOAD","MEAN_MOTION_DOT":"0.00002639","SITE":"AFETR","RCS_SIZE":"LARGE","NORAD_CAT_ID":"51974"},{"TLE_LINE1":"1 51975U 22025V   23079.68763522  .00032411  00000-0  19551-2 0  9992","MEAN_MOTION":"15.10484480","EPHEMERIS_TYPE":"0","OBJECT_TYPE":"PAYLOAD","ARG_OF_PERICENTER":"81.4644","LAUNCH_DATE":"2022-03-09","SITE":"AFETR","MEAN_MOTION_DOT":"0.00032411","RCS_SIZE":"LARGE","NORAD_CAT_ID":"51975","GP_ID":"228547831","REV_AT_EPOCH":"5741","TIME_SYSTEM":"UTC","MEAN_MOTION_DDOT":"0.0000000000000","CLASSIFICATION_TYPE":"U","BSTAR":"0.00195510000000","ELEMENT_SET_NO":"999","CENTER_NAME":"EARTH","OBJECT_NAME":"STARLINK-3674","PERIAPSIS":"533.847","FILE":"3866115","TLE_LINE2":"2 51975  53.1955 219.3038 0001268  81.4644 278.6492 15.10484480 57417","PERIOD":"95.334","ECCENTRICITY":"0.00012680","APOAPSIS":"535.600","RA_OF_ASC_NODE":"219.3038","REF_FRAME":"TEME","INCLINATION":"53.1955","OBJECT_ID":"2022-025V","SEMIMAJOR_AXIS":"6912.858","EPOCH":"2023-03-20T16:30:11.683008","MEAN_ANOMALY":"278.6492","MEAN_ELEMENT_THEORY":"SGP4","DECAY_DATE":null,"COUNTRY_CODE":"US"},{"EPOCH":"2023-03-20T17:44:19.264704","MEAN_ANOMALY":"281.9275","MEAN_ELEMENT_THEORY":"SGP4","OBJECT_ID":"2022-025W","SEMIMAJOR_AXIS":"6917.864","COUNTRY_CODE":"US","DECAY_DATE":null,"PERIAPSIS":"538.866","FILE":"3866115","OBJECT_NAME":"STARLINK-3663","APOAPSIS":"540.591","ECCENTRICITY":"0.00012470","RA_OF_ASC_NODE":"229.6513","REF_FRAME":"TEME","INCLINATION":"53.2140","TLE_LINE2":"2 51976  53.2140 229.6513 0001247  78.1857 281.9275 15.08845422 57277","PERIOD":"95.437","MEAN_MOTION_DDOT":"0.0000000000000","BSTAR":"0.00042108000000","ELEMENT_SET_NO":"999","CLASSIFICATION_TYPE":"U","GP_ID":"228549083","REV_AT_EPOCH":"5727","TIME_SYSTEM":"UTC","CENTER_NAME":"EARTH","OBJECT_TYPE":"PAYLOAD","ARG_OF_PERICENTER":"78.1857","LAUNCH_DATE":"2022-03-09","TLE_LINE1":"1 51976U 22025W   23079.73911186  .00006421  00000-0  42108-3 0  9997","MEAN_MOTION":"15.08845422","EPHEMERIS_TYPE":"0","NORAD_CAT_ID":"51976","RCS_SIZE":"LARGE","SITE":"AFETR","MEAN_MOTION_DOT":"0.00006421"}];
